[{"OBJECT_NAME":"ONEWEB-0319","OBJECT_ID":"2021-075AG","EPOCH":"2025-09-02T21:45:53.825472","MEAN_MOTION":13.17648977,"ECCENTRICITY":0.00021298,"INCLINATION":87.9029,"RA_OF_ASC_NODE":63.032,"ARG_OF_PERICENTER":96.3913,"MEAN_ANOMALY":263.7462,"EPHEMERIS_TYPE":0,"CLASSIFICATION_TYPE":"U","NORAD_CAT_ID":49105,"ELEMENT_SET_NO":999,"REV_AT_EPOCH":19577,"BSTAR":0.00012894627,"MEAN_MOTION_DOT":6.3e-7,"MEAN_MOTION_DDOT":0},{"OBJECT_NAME":"ONEWEB-0323","OBJECT_ID":"2021-075AH","EPOCH":"2025-09-02T22:21:24.715584","MEAN_MOTION":13.12442223,"ECCENTRICITY":0.00023397,"INCLINATION":87.888,"RA_OF_ASC_NODE":47.7222,"ARG_OF_PERICENTER":102.4437,"MEAN_ANOMALY":257.6954,"EPHEMERIS_TYPE":0,"CLASSIFICATION_TYPE":"U","NORAD_CAT_ID":49106,"ELEMENT_SET_NO":999,"REV_AT_EPOCH":19687,"BSTAR":-0.00064195781,"MEAN_MOTION_DOT":-2.18e-6,"MEAN_MOTION_DDOT":0},{"OBJECT_NAME":"ONEWEB-0329","OBJECT_ID":"2021-075AJ","EPOCH":"2025-09-02T21:58:02.384832","MEAN_MOTION":13.17650876,"ECCENTRICITY":0.0001928,"INCLINATION":87.9024,"RA_OF_ASC_NODE":63.0341,"ARG_OF_PERICENTER":96.0899,"MEAN_ANOMALY":264.0452,"EPHEMERIS_TYPE":0,"CLASSIFICATION_TYPE":"U","NORAD_CAT_ID":49107,"ELEMENT_SET_NO":999,"REV_AT_EPOCH":19575,"BSTAR":0.00042512699,"MEAN_MOTION_DOT":1.78e-6,"MEAN_MOTION_DDOT":0},{"OBJECT_NAME":"ONEWEB-0330","OBJECT_ID":"2021-075AK","EPOCH":"2025-09-02T21:59:14.735328","MEAN_MOTION":13.17649485,"ECCENTRICITY":0.00016752,"INCLINATION":87.9026,"RA_OF_ASC_NODE":63.0372,"ARG_OF_PERICENTER":99.0592,"MEAN_ANOMALY":261.0729,"EPHEMERIS_TYPE":0,"CLASSIFICATION_TYPE":"U","NORAD_CAT_ID":49108,"ELEMENT_SET_NO":999,"REV_AT_EPOCH":19579,"BSTAR":-0.00053807865,"MEAN_MOTION_DOT":-1.96e-6,"MEAN_MOTION_DDOT":0},{"OBJECT_NAME":"ONEWEB-0292","OBJECT_ID":"2021-083A","EPOCH":"2025-09-02T21:35:47.302656","MEAN_MOTION":13.13470018,"ECCENTRICITY":0.00019007,"INCLINATION":87.9017,"RA_OF_ASC_NODE":17.336,"ARG_OF_PERICENTER":98.1331,"MEAN_ANOMALY":262.0014,"EPHEMERIS_TYPE":0,"CLASSIFICATION_TYPE":"U","NORAD_CAT_ID":49186,"ELEMENT_SET_NO":999,"REV_AT_EPOCH":19321,"BSTAR":0.00079730535,"MEAN_MOTION_DOT":3.04e-6,"MEAN_MOTION_DDOT":0},{"OBJECT_NAME":"ONEWEB-0303","OBJECT_ID":"2021-083B","EPOCH":"2025-09-02T21:12:43.640352","MEAN_MOTION":13.18687079,"ECCENTRICITY":0.00019217,"INCLINATION":87.9168,"RA_OF_ASC_NODE":32.507,"ARG_OF_PERICENTER":96.3844,"MEAN_ANOMALY":263.7507,"EPHEMERIS_TYPE":0,"CLASSIFICATION_TYPE":"U","NORAD_CAT_ID":49187,"ELEMENT_SET_NO":999,"REV_AT_EPOCH":19211,"BSTAR":0.0001561487,"MEAN_MOTION_DOT":7.4e-7,"MEAN_MOTION_DDOT":0},{"OBJECT_NAME":"ONEWEB-0306","OBJECT_ID":"2021-083C","EPOCH":"2025-09-02T15:30:41.350752","MEAN_MOTION":13.18687541,"ECCENTRICITY":0.00015186,"INCLINATION":87.917,"RA_OF_ASC_NODE":32.5399,"ARG_OF_PERICENTER":94.0599,"MEAN_ANOMALY":266.0707,"EPHEMERIS_TYPE":0,"CLASSIFICATION_TYPE":"U","NORAD_CAT_ID":49188,"ELEMENT_SET_NO":999,"REV_AT_EPOCH":19212,"BSTAR":0.00012588868,"MEAN_MOTION_DOT":6.3e-7,"MEAN_MOTION_DDOT":0},{"OBJECT_NAME":"ONEWEB-0307","OBJECT_ID":"2021-083D","EPOCH":"2025-09-02T19:37:31.852128","MEAN_MOTION":13.13472809,"ECCENTRICITY":0.0001484,"INCLINATION":87.9005,"RA_OF_ASC_NODE":17.3511,"ARG_OF_PERICENTER":105.8453,"MEAN_ANOMALY":254.2839,"EPHEMERIS_TYPE":0,"CLASSIFICATION_TYPE":"U","NORAD_CAT_ID":49189,"ELEMENT_SET_NO":999,"REV_AT_EPOCH":19320,"BSTAR":0.00090549548,"MEAN_MOTION_DOT":3.43e-6,"MEAN_MOTION_DDOT":0},{"OBJECT_NAME":"ONEWEB-0320","OBJECT_ID":"2021-083E","EPOCH":"2025-09-02T21:07:57.522432","MEAN_MOTION":13.18684906,"ECCENTRICITY":0.00017689,"INCLINATION":87.9168,"RA_OF_ASC_NODE":32.5214,"ARG_OF_PERICENTER":95.7276,"MEAN_ANOMALY":264.4058,"EPHEMERIS_TYPE":0,"CLASSIFICATION_TYPE":"U","NORAD_CAT_ID":49190,"ELEMENT_SET_NO":999,"REV_AT_EPOCH":19211,"BSTAR":0.00014462578,"MEAN_MOTION_DOT":7.0e-7,"MEAN_MOTION_DDOT":0},{"OBJECT_NAME":"ONEWEB-0321","OBJECT_ID":"2021-083F","EPOCH":"2025-09-02T18:42:43.009344","MEAN_MOTION":13.20770883,"ECCENTRICITY":0.0001515,"INCLINATION":87.9283,"RA_OF_ASC_NODE":331.7229,"ARG_OF_PERICENTER":97.901,"MEAN_ANOMALY":262.2295,"EPHEMERIS_TYPE":0,"CLASSIFICATION_TYPE":"U","NORAD_CAT_ID":49191,"ELEMENT_SET_NO":999,"REV_AT_EPOCH":19889,"BSTAR":-0.00011377627,"MEAN_MOTION_DOT":-3.3e-7,"MEAN_MOTION_DDOT":0},{"OBJECT_NAME":"ONEWEB-0322","OBJECT_ID":"2021-083G","EPOCH":"2025-09-02T19:31:28.248096","MEAN_MOTION":13.13471999,"ECCENTRICITY":0.00013161,"INCLINATION":87.902,"RA_OF_ASC_NODE":17.3473,"ARG_OF_PERICENTER":94.7589,"MEAN_ANOMALY":265.3691,"EPHEMERIS_TYPE":0,"CLASSIFICATION_TYPE":"U","NORAD_CAT_ID":49192,"ELEMENT_SET_NO":999,"REV_AT_EPOCH":19319,"BSTAR":0.00089883776,"MEAN_MOTION_DOT":3.41e-6,"MEAN_MOTION_DDOT":0},{"OBJECT_NAME":"ONEWEB-0324","OBJECT_ID":"2021-083H","EPOCH":"2025-09-02T22:38:13.135776","MEAN_MOTION":13.18685384,"ECCENTRICITY":0.00017154,"INCLINATION":87.9169,"RA_OF_ASC_NODE":32.4887,"ARG_OF_PERICENTER":100.3931,"MEAN_ANOMALY":259.7395,"EPHEMERIS_TYPE":0,"CLASSIFICATION_TYPE":"U","NORAD_CAT_ID":49193,"ELEMENT_SET_NO":999,"REV_AT_EPOCH":19214,"BSTAR":9.8728003e-5,"MEAN_MOTION_DOT":5.2e-7,"MEAN_MOTION_DDOT":0},{"OBJECT_NAME":"ONEWEB-0325","OBJECT_ID":"2021-083J","EPOCH":"2025-09-02T19:04:27.268320","MEAN_MOTION":13.18687793,"ECCENTRICITY":0.00016511,"INCLINATION":87.917,"RA_OF_ASC_NODE":32.5357,"ARG_OF_PERICENTER":93.0621,"MEAN_ANOMALY":267.07,"EPHEMERIS_TYPE":0,"CLASSIFICATION_TYPE":"U","NORAD_CAT_ID":49194,"ELEMENT_SET_NO":999,"REV_AT_EPOCH":19213,"BSTAR":0.00011467382,"MEAN_MOTION_DOT":5.8e-7,"MEAN_MOTION_DDOT":0},{"OBJECT_NAME":"ONEWEB-0326","OBJECT_ID":"2021-083K","EPOCH":"2025-09-02T21:15:17.003808","MEAN_MOTION":13.1868689,"ECCENTRICITY":0.00020988,"INCLINATION":87.9168,"RA_OF_ASC_NODE":32.506,"ARG_OF_PERICENTER":93.788,"MEAN_ANOMALY":266.3492,"EPHEMERIS_TYPE":0,"CLASSIFICATION_TYPE":"U","NORAD_CAT_ID":49195,"ELEMENT_SET_NO":999,"REV_AT_EPOCH":19213,"BSTAR":-0.00063987013,"MEAN_MOTION_DOT":-2.39e-6,"MEAN_MOTION_DDOT":0},{"OBJECT_NAME":"ONEWEB-0327","OBJECT_ID":"2021-083L","EPOCH":"2025-09-02T21:14:54.849120","MEAN_MOTION":13.18676781,"ECCENTRICITY":0.00023146,"INCLINATION":87.9169,"RA_OF_ASC_NODE":32.5351,"ARG_OF_PERICENTER":89.861,"MEAN_ANOMALY":270.2788,"EPHEMERIS_TYPE":0,"CLASSIFICATION_TYPE":"U","NORAD_CAT_ID":49196,"ELEMENT_SET_NO":999,"REV_AT_EPOCH":19215,"BSTAR":-0.00018622304,"MEAN_MOTION_DOT":-6.0e-7,"MEAN_MOTION_DDOT":0},{"OBJECT_NAME":"ONEWEB-0328","OBJECT_ID":"2021-083M","EPOCH":"2025-09-02T17:27:08.824608","MEAN_MOTION":13.13472276,"ECCENTRICITY":0.00017432,"INCLINATION":87.9018,"RA_OF_ASC_NODE":17.303,"ARG_OF_PERICENTER":102.3854,"MEAN_ANOMALY":257.747,"EPHEMERIS_TYPE":0,"CLASSIFICATION_TYPE":"U","NORAD_CAT_ID":49197,"ELEMENT_SET_NO":999,"REV_AT_EPOCH":19316,"BSTAR":0.00067700068,"MEAN_MOTION_DOT":2.6e-6,"MEAN_MOTION_DDOT":0},{"OBJECT_NAME":"ONEWEB-0331","OBJECT_ID":"2021-083N","EPOCH":"2025-09-02T21:05:36.248064","MEAN_MOTION":13.1868696,"ECCENTRICITY":0.00020528,"INCLINATION":87.9167,"RA_OF_ASC_NODE":32.4994,"ARG_OF_PERICENTER":101.0619,"MEAN_ANOMALY":259.0744,"EPHEMERIS_TYPE":0,"CLASSIFICATION_TYPE":"U","NORAD_CAT_ID":49198,"ELEMENT_SET_NO":999,"REV_AT_EPOCH":19214,"BSTAR":0.00012139509,"MEAN_MOTION_DOT":6.1e-7,"MEAN_MOTION_DDOT":0}]
