ONEWEB-0319             
1 49105U 21075AG  25245.90687298  .00000063  00000+0  12895-3 0  9997
2 49105  87.9029  63.0320 0002129  96.3913 263.7462 13.17648977195777
ONEWEB-0323             
1 49106U 21075AH  25245.93153606 -.00000218  00000+0 -64196-3 0  9997
2 49106  87.8880  47.7222 0002339 102.4437 257.6954 13.12442223196876
ONEWEB-0329             
1 49107U 21075AJ  25245.91530538  .00000178  00000+0  42513-3 0  9991
2 49107  87.9024  63.0341 0001928  96.0899 264.0452 13.17650876195755
ONEWEB-0330             
1 49108U 21075AK  25245.91614277 -.00000196  00000+0 -53808-3 0  9996
2 49108  87.9026  63.0372 0001675  99.0592 261.0729 13.17649485195796
ONEWEB-0292             
1 49186U 21083A   25245.89985304  .00000304  00000+0  79731-3 0  9992
2 49186  87.9017  17.3360 0001900  98.1331 262.0014 13.13470018193216
ONEWEB-0303             
1 49187U 21083B   25245.88383843  .00000074  00000+0  15615-3 0  9997
2 49187  87.9168  32.5070 0001921  96.3844 263.7507 13.18687079192118
ONEWEB-0306             
1 49188U 21083C   25245.64631193  .00000063  00000+0  12589-3 0  9991
2 49188  87.9170  32.5399 0001518  94.0599 266.0707 13.18687541192123
ONEWEB-0307             
1 49189U 21083D   25245.81772977  .00000343  00000+0  90550-3 0  9992
2 49189  87.9005  17.3511 0001484 105.8453 254.2839 13.13472809193209
ONEWEB-0320             
1 49190U 21083E   25245.88052688  .00000070  00000+0  14463-3 0  9997
2 49190  87.9168  32.5214 0001768  95.7276 264.4058 13.18684906192118
ONEWEB-0321             
1 49191U 21083F   25245.77966446 -.00000033  00000+0 -11378-3 0  9995
2 49191  87.9283 331.7229 0001515  97.9010 262.2295 13.20770883198890
ONEWEB-0322             
1 49192U 21083G   25245.81352139  .00000341  00000+0  89884-3 0  9996
2 49192  87.9020  17.3473 0001316  94.7589 265.3691 13.13471999193193
ONEWEB-0324             
1 49193U 21083H   25245.94320759  .00000052  00000+0  98728-4 0  9991
2 49193  87.9169  32.4887 0001715 100.3931 259.7395 13.18685384192145
ONEWEB-0325             
1 49194U 21083J   25245.79476005  .00000058  00000+0  11467-3 0  9991
2 49194  87.9170  32.5357 0001651  93.0621 267.0700 13.18687793192131
ONEWEB-0326             
1 49195U 21083K   25245.88561347 -.00000239  00000+0 -63987-3 0  9993
2 49195  87.9168  32.5060 0002098  93.7880 266.3492 13.18686890192137
ONEWEB-0327             
1 49196U 21083L   25245.88535705 -.00000060  00000+0 -18622-3 0  9991
2 49196  87.9169  32.5351 0002314  89.8610 270.2788 13.18676781192152
ONEWEB-0328             
1 49197U 21083M   25245.72718547  .00000260  00000+0  67700-3 0  9993
2 49197  87.9018  17.3030 0001743 102.3854 257.7470 13.13472276193165
ONEWEB-0331             
1 49198U 21083N   25245.87889176  .00000061  00000+0  12140-3 0  9994
2 49198  87.9167  32.4994 0002052 101.0619 259.0744 13.18686960192145
